[{"OBJECT_NAME":"ONEWEB-0528","OBJECT_ID":"2022-166B","EPOCH":"2026-05-01T07:41:35.528640","MEAN_MOTION":13.21824784,"ECCENTRICITY":0.0001897,"INCLINATION":87.9223,"RA_OF_ASC_NODE":253.329,"ARG_OF_PERICENTER":92.4082,"MEAN_ANOMALY":267.727,"EPHEMERIS_TYPE":0,"CLASSIFICATION_TYPE":"U","NORAD_CAT_ID":54643,"ELEMENT_SET_NO":999,"REV_AT_EPOCH":16535,"BSTAR":0.0001827,"MEAN_MOTION_DOT":8.8e-07,"MEAN_MOTION_DDOT":0.0},{"OBJECT_NAME":"ONEWEB-0539","OBJECT_ID":"2022-166C","EPOCH":"2026-05-01T06:48:18.915264","MEAN_MOTION":13.21827467,"ECCENTRICITY":0.0002137,"INCLINATION":87.9228,"RA_OF_ASC_NODE":253.3054,"ARG_OF_PERICENTER":101.9005,"MEAN_ANOMALY":258.2369,"EPHEMERIS_TYPE":0,"CLASSIFICATION_TYPE":"U","NORAD_CAT_ID":54644,"ELEMENT_SET_NO":999,"REV_AT_EPOCH":16534,"BSTAR":-6.5166e-05,"MEAN_MOTION_DOT":-1.4e-07,"MEAN_MOTION_DDOT":0.0},{"OBJECT_NAME":"ONEWEB-0540","OBJECT_ID":"2022-166D","EPOCH":"2026-05-01T06:58:11.982144","MEAN_MOTION":13.2182757,"ECCENTRICITY":0.0001982,"INCLINATION":87.9223,"RA_OF_ASC_NODE":253.3375,"ARG_OF_PERICENTER":102.4012,"MEAN_ANOMALY":257.7344,"EPHEMERIS_TYPE":0,"CLASSIFICATION_TYPE":"U","NORAD_CAT_ID":54645,"ELEMENT_SET_NO":999,"REV_AT_EPOCH":16533,"BSTAR":-2.6088e-05,"MEAN_MOTION_DOT":2e-08,"MEAN_MOTION_DDOT":0.0},{"OBJECT_NAME":"ONEWEB-0542","OBJECT_ID":"2022-166E","EPOCH":"2026-05-01T07:02:50.763840","MEAN_MOTION":13.21827411,"ECCENTRICITY":0.0002184,"INCLINATION":87.9231,"RA_OF_ASC_NODE":253.3011,"ARG_OF_PERICENTER":103.8063,"MEAN_ANOMALY":256.3314,"EPHEMERIS_TYPE":0,"CLASSIFICATION_TYPE":"U","NORAD_CAT_ID":54646,"ELEMENT_SET_NO":999,"REV_AT_EPOCH":16534,"BSTAR":5.4313999999999995e-05,"MEAN_MOTION_DOT":3.5e-07,"MEAN_MOTION_DDOT":0.0},{"OBJECT_NAME":"ONEWEB-0545","OBJECT_ID":"2022-166F","EPOCH":"2026-04-30T21:06:58.180320","MEAN_MOTION":13.21824408,"ECCENTRICITY":0.00023,"INCLINATION":87.9222,"RA_OF_ASC_NODE":253.3991,"ARG_OF_PERICENTER":109.1171,"MEAN_ANOMALY":251.0212,"EPHEMERIS_TYPE":0,"CLASSIFICATION_TYPE":"U","NORAD_CAT_ID":54647,"ELEMENT_SET_NO":999,"REV_AT_EPOCH":16525,"BSTAR":-5.9393e-05,"MEAN_MOTION_DOT":-1.2e-07,"MEAN_MOTION_DDOT":0.0},{"OBJECT_NAME":"ONEWEB-0580","OBJECT_ID":"2022-166G","EPOCH":"2026-04-30T20:30:37.488384","MEAN_MOTION":13.2182413,"ECCENTRICITY":0.000214,"INCLINATION":87.9223,"RA_OF_ASC_NODE":253.4042,"ARG_OF_PERICENTER":109.9948,"MEAN_ANOMALY":250.1417,"EPHEMERIS_TYPE":0,"CLASSIFICATION_TYPE":"U","NORAD_CAT_ID":54648,"ELEMENT_SET_NO":999,"REV_AT_EPOCH":16529,"BSTAR":-9.8405e-06,"MEAN_MOTION_DOT":9e-08,"MEAN_MOTION_DDOT":0.0},{"OBJECT_NAME":"ONEWEB-0582","OBJECT_ID":"2022-166H","EPOCH":"2026-04-30T19:42:10.252800","MEAN_MOTION":13.2182652,"ECCENTRICITY":0.0002233,"INCLINATION":87.9222,"RA_OF_ASC_NODE":253.4036,"ARG_OF_PERICENTER":108.7913,"MEAN_ANOMALY":251.3464,"EPHEMERIS_TYPE":0,"CLASSIFICATION_TYPE":"U","NORAD_CAT_ID":54649,"ELEMENT_SET_NO":999,"REV_AT_EPOCH":16526,"BSTAR":-0.00017115,"MEAN_MOTION_DOT":-5.8e-07,"MEAN_MOTION_DDOT":0.0},{"OBJECT_NAME":"ONEWEB-0583","OBJECT_ID":"2022-166J","EPOCH":"2026-05-01T06:53:09.124224","MEAN_MOTION":13.21828317,"ECCENTRICITY":0.0002014,"INCLINATION":87.922,"RA_OF_ASC_NODE":253.334,"ARG_OF_PERICENTER":102.7532,"MEAN_ANOMALY":257.3828,"EPHEMERIS_TYPE":0,"CLASSIFICATION_TYPE":"U","NORAD_CAT_ID":54650,"ELEMENT_SET_NO":999,"REV_AT_EPOCH":16533,"BSTAR":-0.0001046,"MEAN_MOTION_DOT":-3e-07,"MEAN_MOTION_DDOT":0.0},{"OBJECT_NAME":"ONEWEB-0584","OBJECT_ID":"2022-166K","EPOCH":"2026-05-01T07:22:12.279648","MEAN_MOTION":13.21823741,"ECCENTRICITY":0.0001933,"INCLINATION":87.9221,"RA_OF_ASC_NODE":253.3164,"ARG_OF_PERICENTER":106.7481,"MEAN_ANOMALY":253.3865,"EPHEMERIS_TYPE":0,"CLASSIFICATION_TYPE":"U","NORAD_CAT_ID":54651,"ELEMENT_SET_NO":999,"REV_AT_EPOCH":16532,"BSTAR":0.0001949,"MEAN_MOTION_DOT":9.4e-07,"MEAN_MOTION_DDOT":0.0},{"OBJECT_NAME":"ONEWEB-0585","OBJECT_ID":"2022-166L","EPOCH":"2026-04-30T21:02:05.896032","MEAN_MOTION":13.21826048,"ECCENTRICITY":0.0001764,"INCLINATION":87.9225,"RA_OF_ASC_NODE":253.3874,"ARG_OF_PERICENTER":96.1679,"MEAN_ANOMALY":263.9656,"EPHEMERIS_TYPE":0,"CLASSIFICATION_TYPE":"U","NORAD_CAT_ID":54652,"ELEMENT_SET_NO":999,"REV_AT_EPOCH":16527,"BSTAR":3.0677e-05,"MEAN_MOTION_DOT":2.6e-07,"MEAN_MOTION_DDOT":0.0},{"OBJECT_NAME":"ONEWEB-0586","OBJECT_ID":"2022-166M","EPOCH":"2026-04-30T19:32:30.100128","MEAN_MOTION":13.21824515,"ECCENTRICITY":0.0002054,"INCLINATION":87.9225,"RA_OF_ASC_NODE":253.426,"ARG_OF_PERICENTER":102.5761,"MEAN_ANOMALY":257.5603,"EPHEMERIS_TYPE":0,"CLASSIFICATION_TYPE":"U","NORAD_CAT_ID":54653,"ELEMENT_SET_NO":999,"REV_AT_EPOCH":16526,"BSTAR":-0.00019885,"MEAN_MOTION_DOT":-6.9e-07,"MEAN_MOTION_DDOT":0.0},{"OBJECT_NAME":"ONEWEB-0587","OBJECT_ID":"2022-166N","EPOCH":"2026-05-01T06:41:02.276448","MEAN_MOTION":13.21827573,"ECCENTRICITY":0.0001594,"INCLINATION":87.9234,"RA_OF_ASC_NODE":253.3025,"ARG_OF_PERICENTER":91.0023,"MEAN_ANOMALY":269.1294,"EPHEMERIS_TYPE":0,"CLASSIFICATION_TYPE":"U","NORAD_CAT_ID":54654,"ELEMENT_SET_NO":999,"REV_AT_EPOCH":16548,"BSTAR":2.6749e-05,"MEAN_MOTION_DOT":2.4e-07,"MEAN_MOTION_DDOT":0.0},{"OBJECT_NAME":"ONEWEB-0589","OBJECT_ID":"2022-166P","EPOCH":"2026-04-30T21:16:39.630720","MEAN_MOTION":13.21824318,"ECCENTRICITY":0.000251,"INCLINATION":87.922,"RA_OF_ASC_NODE":253.3988,"ARG_OF_PERICENTER":116.6363,"MEAN_ANOMALY":243.5029,"EPHEMERIS_TYPE":0,"CLASSIFICATION_TYPE":"U","NORAD_CAT_ID":54655,"ELEMENT_SET_NO":999,"REV_AT_EPOCH":16529,"BSTAR":-9.782800000000001e-05,"MEAN_MOTION_DOT":-2.7e-07,"MEAN_MOTION_DDOT":0.0},{"OBJECT_NAME":"ONEWEB-0590","OBJECT_ID":"2022-166Q","EPOCH":"2026-05-01T06:57:48.028608","MEAN_MOTION":13.21827539,"ECCENTRICITY":0.0001592,"INCLINATION":87.923,"RA_OF_ASC_NODE":253.3039,"ARG_OF_PERICENTER":113.1631,"MEAN_ANOMALY":246.9671,"EPHEMERIS_TYPE":0,"CLASSIFICATION_TYPE":"U","NORAD_CAT_ID":54656,"ELEMENT_SET_NO":999,"REV_AT_EPOCH":16533,"BSTAR":-7.8228e-06,"MEAN_MOTION_DOT":1e-07,"MEAN_MOTION_DDOT":0.0},{"OBJECT_NAME":"ONEWEB-0591","OBJECT_ID":"2022-166R","EPOCH":"2026-05-01T07:14:57.099264","MEAN_MOTION":13.21827847,"ECCENTRICITY":0.0001824,"INCLINATION":87.9222,"RA_OF_ASC_NODE":253.3198,"ARG_OF_PERICENTER":102.3957,"MEAN_ANOMALY":257.7381,"EPHEMERIS_TYPE":0,"CLASSIFICATION_TYPE":"U","NORAD_CAT_ID":54657,"ELEMENT_SET_NO":999,"REV_AT_EPOCH":16536,"BSTAR":0.00010204,"MEAN_MOTION_DOT":5.5e-07,"MEAN_MOTION_DDOT":0.0},{"OBJECT_NAME":"ONEWEB-0592","OBJECT_ID":"2022-166S","EPOCH":"2026-05-01T07:19:47.671104","MEAN_MOTION":13.21827868,"ECCENTRICITY":0.0001891,"INCLINATION":87.9229,"RA_OF_ASC_NODE":253.2931,"ARG_OF_PERICENTER":100.636,"MEAN_ANOMALY":259.4987,"EPHEMERIS_TYPE":0,"CLASSIFICATION_TYPE":"U","NORAD_CAT_ID":54658,"ELEMENT_SET_NO":999,"REV_AT_EPOCH":16524,"BSTAR":0.00017127,"MEAN_MOTION_DOT":8.4e-07,"MEAN_MOTION_DDOT":0.0},{"OBJECT_NAME":"ONEWEB-0593","OBJECT_ID":"2022-166T","EPOCH":"2026-04-30T20:57:16.455168","MEAN_MOTION":13.21824754,"ECCENTRICITY":0.0002042,"INCLINATION":87.9223,"RA_OF_ASC_NODE":253.3945,"ARG_OF_PERICENTER":100.2593,"MEAN_ANOMALY":259.8772,"EPHEMERIS_TYPE":0,"CLASSIFICATION_TYPE":"U","NORAD_CAT_ID":54659,"ELEMENT_SET_NO":999,"REV_AT_EPOCH":16529,"BSTAR":-3.4403e-05,"MEAN_MOTION_DOT":-1e-08,"MEAN_MOTION_DDOT":0.0},{"OBJECT_NAME":"ONEWEB-0594","OBJECT_ID":"2022-166U","EPOCH":"2026-05-01T02:53:21.321024","MEAN_MOTION":13.21824336,"ECCENTRICITY":0.0001839,"INCLINATION":87.9221,"RA_OF_ASC_NODE":253.3625,"ARG_OF_PERICENTER":97.6804,"MEAN_ANOMALY":262.4539,"EPHEMERIS_TYPE":0,"CLASSIFICATION_TYPE":"U","NORAD_CAT_ID":54660,"ELEMENT_SET_NO":999,"REV_AT_EPOCH":16534,"BSTAR":-8.8373e-05,"MEAN_MOTION_DOT":-2.3e-07,"MEAN_MOTION_DDOT":0.0},{"OBJECT_NAME":"ONEWEB-0595","OBJECT_ID":"2022-166V","EPOCH":"2026-05-01T07:46:25.784256","MEAN_MOTION":13.21823977,"ECCENTRICITY":0.0001667,"INCLINATION":87.9231,"RA_OF_ASC_NODE":253.2985,"ARG_OF_PERICENTER":97.3899,"MEAN_ANOMALY":262.7424,"EPHEMERIS_TYPE":0,"CLASSIFICATION_TYPE":"U","NORAD_CAT_ID":54661,"ELEMENT_SET_NO":999,"REV_AT_EPOCH":16534,"BSTAR":0.00011974,"MEAN_MOTION_DOT":6.2e-07,"MEAN_MOTION_DDOT":0.0},{"OBJECT_NAME":"ONEWEB-0596","OBJECT_ID":"2022-166W","EPOCH":"2026-05-01T07:10:06.593952","MEAN_MOTION":13.21827821,"ECCENTRICITY":0.0001774,"INCLINATION":87.9222,"RA_OF_ASC_NODE":253.3181,"ARG_OF_PERICENTER":99.3184,"MEAN_ANOMALY":260.8151,"EPHEMERIS_TYPE":0,"CLASSIFICATION_TYPE":"U","NORAD_CAT_ID":54662,"ELEMENT_SET_NO":999,"REV_AT_EPOCH":16534,"BSTAR":0.00016771,"MEAN_MOTION_DOT":8.2e-07,"MEAN_MOTION_DDOT":0.0},{"OBJECT_NAME":"ONEWEB-0597","OBJECT_ID":"2022-166X","EPOCH":"2026-05-01T06:43:28.269120","MEAN_MOTION":13.21827256,"ECCENTRICITY":0.0002003,"INCLINATION":87.9222,"RA_OF_ASC_NODE":253.3258,"ARG_OF_PERICENTER":101.5206,"MEAN_ANOMALY":258.6153,"EPHEMERIS_TYPE":0,"CLASSIFICATION_TYPE":"U","NORAD_CAT_ID":54663,"ELEMENT_SET_NO":999,"REV_AT_EPOCH":16534,"BSTAR":-4.89e-05,"MEAN_MOTION_DOT":-7e-08,"MEAN_MOTION_DDOT":0.0},{"OBJECT_NAME":"ONEWEB-0600","OBJECT_ID":"2022-166Y","EPOCH":"2026-04-30T21:11:48.843744","MEAN_MOTION":13.21824601,"ECCENTRICITY":0.000209,"INCLINATION":87.9222,"RA_OF_ASC_NODE":253.3961,"ARG_OF_PERICENTER":96.7293,"MEAN_ANOMALY":263.4079,"EPHEMERIS_TYPE":0,"CLASSIFICATION_TYPE":"U","NORAD_CAT_ID":54664,"ELEMENT_SET_NO":999,"REV_AT_EPOCH":16526,"BSTAR":-0.00014842,"MEAN_MOTION_DOT":-4.8e-07,"MEAN_MOTION_DDOT":0.0},{"OBJECT_NAME":"ONEWEB-0601","OBJECT_ID":"2022-166Z","EPOCH":"2026-04-30T20:59:42.370944","MEAN_MOTION":13.21824723,"ECCENTRICITY":0.0002068,"INCLINATION":87.9224,"RA_OF_ASC_NODE":253.4142,"ARG_OF_PERICENTER":105.6364,"MEAN_ANOMALY":254.4998,"EPHEMERIS_TYPE":0,"CLASSIFICATION_TYPE":"U","NORAD_CAT_ID":54665,"ELEMENT_SET_NO":999,"REV_AT_EPOCH":16545,"BSTAR":-4.4800000000000005e-05,"MEAN_MOTION_DOT":-5e-08,"MEAN_MOTION_DDOT":0.0}]